OBJECT_NAME,OBJECT_ID,EPOCH,MEAN_MOTION,ECCENTRICITY,INCLINATION,RA_OF_ASC_NODE,ARG_OF_PERICENTER,MEAN_ANOMALY,EPHEMERIS_TYPE,CLASSIFICATION_TYPE,NORAD_CAT_ID,ELEMENT_SET_NO,REV_AT_EPOCH,BSTAR,MEAN_MOTION_DOT,MEAN_MOTION_DDOT
IRIDIUM 135,2017-083A,2026-07-13T09:13:43.213152,14.34218264,.00021843,86.3983,311.0643,94.0254,266.1191,0,U,43070,999,44790,.41299245E-4,.135E-5,0
IRIDIUM 138,2017-083B,2026-07-13T09:50:15.154368,14.34218244,.00020665,86.3998,310.7531,92.1611,267.9821,0,U,43071,999,44789,.42079383E-4,.138E-5,0
IRIDIUM 116,2017-083C,2026-07-13T09:04:35.060448,14.34217437,.00024393,86.3985,311.0528,99.2861,260.8611,0,U,43072,999,44792,.40653184E-4,.134E-5,0
IRIDIUM 130,2017-083D,2026-07-13T09:59:23.409888,14.34217509,.00022284,86.3992,311.3147,100.8989,259.2457,0,U,43073,999,44787,.39579421E-4,.131E-5,0
IRIDIUM 151,2017-083E,2026-07-13T09:22:51.244032,14.34217809,.00022428,86.3986,311.1057,95.3361,264.8091,0,U,43074,999,44789,.43379989E-4,.141E-5,0
IRIDIUM 134,2017-083F,2026-07-13T08:37:11.179488,14.34218218,.00022106,86.3986,311.1273,95.7016,264.4432,0,U,43075,999,44785,.34761833E-4,.117E-5,0
IRIDIUM 137,2017-083G,2026-07-13T08:55:27.307776,14.34218201,.00026707,86.3989,311.2154,93.8582,266.2919,0,U,43076,999,44792,.38625031E-4,.128E-5,0
IRIDIUM 141,2017-083H,2026-07-13T08:46:19.128288,14.34217717,.00021685,86.3983,311.0471,93.5783,266.5661,0,U,43077,999,44792,.3444573E-4,.116E-5,0
IRIDIUM 153,2017-083J,2026-07-13T14:19:19.411680,14.34217758,.00021158,86.3960,279.4301,94.3957,265.7480,0,U,43078,999,44906,.17133933E-4,.68E-6,0
IRIDIUM 131,2017-083K,2026-07-13T10:08:31.258464,14.34217834,.00022437,86.3991,311.2109,93.0177,267.1276,0,U,43079,999,44786,.1488206E-4,.61E-6,0
IRIDIUM 144,2018-030A,2026-07-13T14:28:27.446880,14.34217786,.00023807,86.3958,279.3560,97.5104,262.6363,0,U,43249,999,43392,.13897407E-4,.59E-6,0
IRIDIUM 149,2018-030B,2026-07-13T14:37:35.457024,14.34217947,.00022589,86.3958,279.3200,93.4028,266.7426,0,U,43250,999,43394,.33037832E-4,.112E-5,0
IRIDIUM 157,2018-030C,2026-07-13T15:04:59.667168,14.34217637,.00022613,86.3961,279.3660,94.2501,265.8953,0,U,43251,999,43392,.41351712E-4,.136E-5,0
IRIDIUM 140,2018-030D,2026-07-13T15:32:23.647488,14.34217219,.00022391,86.3960,279.3705,95.3185,264.8266,0,U,43252,999,43398,.43496841E-4,.142E-5,0
IRIDIUM 145,2018-030E,2026-07-13T15:14:07.340352,14.34217315,.00024884,86.3960,279.3476,99.8678,260.2798,0,U,43253,999,43391,.40050458E-4,.132E-5,0
IRIDIUM 146,2018-030F,2026-07-13T14:46:43.408416,14.34217470,.00023621,86.3960,279.3681,96.8585,263.2879,0,U,43254,999,43392,.17011482E-4,.67E-6,0
IRIDIUM 148,2018-030G,2026-07-13T07:19:11.711424,14.34217625,.0002349,86.3961,279.5414,94.0252,266.1213,0,U,43255,999,43391,.46108E-4,.149E-5,0
IRIDIUM 142,2018-030H,2026-07-13T14:55:51.464352,14.34218046,.00024066,86.3956,279.2970,97.4202,262.7267,0,U,43256,999,43392,.31683656E-4,.109E-5,0
IRIDIUM 150,2018-030J,2026-07-13T14:10:11.184672,14.34216184,.00021207,86.3960,279.4273,95.5021,264.6416,0,U,43257,999,43394,-.76724384E-4,-.195E-5,0
IRIDIUM 143,2018-030K,2026-07-13T15:23:15.510336,14.34217379,.00023261,86.3965,279.4994,96.1837,263.9624,0,U,43258,999,43388,.17265112E-4,.68E-6,0
IRIDIUM 161,2018-047C,2026-07-13T15:40:50.609856,14.43275215,.00022896,86.4465,77.4036,80.8691,279.2769,0,U,43478,999,42895,.38750878E-4,.151E-5,0
IRIDIUM 152,2018-047D,2026-07-13T14:43:58.443168,14.34219812,.00021311,86.3938,77.2810,83.6561,276.4878,0,U,43479,999,42627,.45653487E-4,.148E-5,0
IRIDIUM 147,2018-047E,2026-07-13T14:53:06.178560,14.34217487,.0002271,86.3941,77.2841,88.7027,271.4429,0,U,43480,999,42627,.39646744E-4,.131E-5,0
IRIDIUM 110,2018-047F,2026-07-13T15:02:14.295840,14.34218119,.00021392,86.3942,77.3741,76.5334,283.6100,0,U,43481,999,42626,.44822025E-4,.145E-5,0
IRIDIUM 162,2018-047G,2026-07-13T15:31:46.975872,14.43277986,.0002206,86.4460,77.2965,86.2616,273.8837,0,U,43482,999,42894,.54626266E-4,.204E-5,0
IRIDIUM 160,2018-061A,2026-07-13T15:24:42.358752,14.34216653,.00022147,86.3940,45.7316,85.8140,274.3308,0,U,43569,999,41716,.42958942E-4,.14E-5,0
IRIDIUM 166,2018-061B,2026-07-13T12:40:18.521760,14.34217384,.00022599,86.3941,45.7294,90.1763,269.9692,0,U,43570,999,41717,.5023595E-5,.34E-6,0
IRIDIUM 158,2018-061C,2026-07-13T15:15:34.490304,14.34217446,.00020561,86.3939,45.6943,86.5289,273.6142,0,U,43571,999,41715,.13105382E-4,.56E-6,0
IRIDIUM 165,2018-061D,2026-07-13T12:31:10.483104,14.34217096,.00022785,86.3939,45.7886,91.3933,268.7524,0,U,43572,999,41716,.8414889E-5,.43E-6,0
IRIDIUM 155,2018-061E,2026-07-13T14:57:18.455328,14.34217369,.00020948,86.3939,45.6144,89.0959,271.0477,0,U,43573,999,41714,.21270345E-4,.79E-6,0
