IRIDIUM 135             
1 43070U 17083A   26194.38452793  .00000135  00000+0  41299-4 0  9993
2 43070  86.3983 311.0643 0002184  94.0254 266.1191 14.34218264447905
IRIDIUM 138             
1 43071U 17083B   26194.40989762  .00000138  00000+0  42079-4 0  9998
2 43071  86.3998 310.7531 0002066  92.1611 267.9821 14.34218244447894
IRIDIUM 116             
1 43072U 17083C   26194.37818357  .00000134  00000+0  40653-4 0  9998
2 43072  86.3985 311.0528 0002439  99.2861 260.8611 14.34217437447926
IRIDIUM 130             
1 43073U 17083D   26194.41624317  .00000131  00000+0  39579-4 0  9997
2 43073  86.3992 311.3147 0002228 100.8989 259.2457 14.34217509447875
IRIDIUM 151             
1 43074U 17083E   26194.39087088  .00000141  00000+0  43380-4 0  9999
2 43074  86.3986 311.1057 0002242  95.3361 264.8091 14.34217809447896
IRIDIUM 134             
1 43075U 17083F   26194.35915717  .00000117  00000+0  34762-4 0  9992
2 43075  86.3986 311.1273 0002210  95.7016 264.4432 14.34218218447859
IRIDIUM 137             
1 43076U 17083G   26194.37184384  .00000128  00000+0  38625-4 0  9997
2 43076  86.3989 311.2154 0002670  93.8582 266.2919 14.34218201447929
IRIDIUM 141             
1 43077U 17083H   26194.36549917  .00000116  00000+0  34446-4 0  9998
2 43077  86.3983 311.0471 0002168  93.5783 266.5661 14.34217717447924
IRIDIUM 153             
1 43078U 17083J   26194.59675245  .00000068  00000+0  17134-4 0  9999
2 43078  86.3960 279.4301 0002115  94.3957 265.7480 14.34217758449065
IRIDIUM 131             
1 43079U 17083K   26194.42258401  .00000061  00000+0  14882-4 0  9993
2 43079  86.3991 311.2109 0002243  93.0177 267.1276 14.34217834447863
IRIDIUM 144             
1 43249U 18030A   26194.60309545  .00000059  00000+0  13897-4 0  9993
2 43249  86.3958 279.3560 0002380  97.5104 262.6363 14.34217786433926
IRIDIUM 149             
1 43250U 18030B   26194.60943816  .00000112  00000+0  33038-4 0  9999
2 43250  86.3958 279.3200 0002258  93.4028 266.7426 14.34217947433949
IRIDIUM 157             
1 43251U 18030C   26194.62846837  .00000136  00000+0  41352-4 0  9991
2 43251  86.3961 279.3660 0002261  94.2501 265.8953 14.34217637433922
IRIDIUM 140             
1 43252U 18030D   26194.64749592  .00000142  00000+0  43497-4 0  9993
2 43252  86.3960 279.3705 0002239  95.3185 264.8266 14.34217219433985
IRIDIUM 145             
1 43253U 18030E   26194.63480718  .00000132  00000+0  40050-4 0  9996
2 43253  86.3960 279.3476 0002488  99.8678 260.2798 14.34217315433913
IRIDIUM 146             
1 43254U 18030F   26194.61578019  .00000067  00000+0  17011-4 0  9995
2 43254  86.3960 279.3681 0002362  96.8585 263.2879 14.34217470433923
IRIDIUM 148             
1 43255U 18030G   26194.30499666  .00000149  00000+0  46108-4 0  9992
2 43255  86.3961 279.5414 0002349  94.0252 266.1213 14.34217625433912
IRIDIUM 142             
1 43256U 18030H   26194.62212343  .00000109  00000+0  31684-4 0  9992
2 43256  86.3956 279.2970 0002406  97.4202 262.7267 14.34218046433927
IRIDIUM 150             
1 43257U 18030J   26194.59040723 -.00000195  00000+0 -76724-4 0  9991
2 43257  86.3960 279.4273 0002120  95.5021 264.6416 14.34216184433942
IRIDIUM 143             
1 43258U 18030K   26194.64115174  .00000068  00000+0  17265-4 0  9993
2 43258  86.3965 279.4994 0002326  96.1837 263.9624 14.34217379433881
IRIDIUM 161             
1 43478U 18047C   26194.65336354  .00000151  00000+0  38751-4 0  9997
2 43478  86.4465  77.4036 0002289  80.8691 279.2769 14.43275215428955
IRIDIUM 152             
1 43479U 18047D   26194.61387087  .00000148  00000+0  45653-4 0  9998
2 43479  86.3938  77.2810 0002131  83.6561 276.4878 14.34219812426275
IRIDIUM 147             
1 43480U 18047E   26194.62021040  .00000131  00000+0  39647-4 0  9993
2 43480  86.3941  77.2841 0002271  88.7027 271.4429 14.34217487426276
IRIDIUM 110             
1 43481U 18047F   26194.62655435  .00000145  00000+0  44822-4 0  9991
2 43481  86.3942  77.3741 0002139  76.5334 283.6100 14.34218119426260
IRIDIUM 162             
1 43482U 18047G   26194.64707148  .00000204  00000+0  54626-4 0  9992
2 43482  86.4460  77.2965 0002206  86.2616 273.8837 14.43277986428942
IRIDIUM 160             
1 43569U 18061A   26194.64215693  .00000140  00000+0  42959-4 0  9998
2 43569  86.3940  45.7316 0002214  85.8140 274.3308 14.34216653417161
IRIDIUM 166             
1 43570U 18061B   26194.52799215  .00000034  00000+0  50236-5 0  9994
2 43570  86.3941  45.7294 0002259  90.1763 269.9692 14.34217384417177
IRIDIUM 158             
1 43571U 18061C   26194.63581586  .00000056  00000+0  13105-4 0  9994
2 43571  86.3939  45.6943 0002056  86.5289 273.6142 14.34217446417151
IRIDIUM 165             
1 43572U 18061D   26194.52164911  .00000043  00000+0  84149-5 0  9995
2 43572  86.3939  45.7886 0002278  91.3933 268.7524 14.34217096417166
IRIDIUM 155             
1 43573U 18061E   26194.62313027  .00000079  00000+0  21270-4 0  9995
2 43573  86.3939  45.6144 0002094  89.0959 271.0477 14.34217369417146
